{
  "type": "FeatureCollection",
  "features": [
    {
      "type": "Feature",
      "properties": {
        "norad_id": 30103,
        "name": "FENGYUN 1C DEB",
        "group": "fengyun-1c-debris",
        "lat": -6.105246198957212,
        "lon": -35.37649050612195,
        "alt_km": 846.8715305382475,
        "timestamp": "2025-12-08T08:59:01.039581+00:00",
        "meta_object_name": "FENGYUN 1C DEB",
        "meta_object_id": "1999-025RG",
        "meta_epoch": "2025-12-07T21:29:09.248352",
        "meta_mean_motion": 14.24841958,
        "meta_eccentricity": 0.00639824,
        "meta_inclination": 99.2444,
        "meta_ra_of_asc_node": 323.1212,
        "meta_arg_of_pericenter": 133.5589,
        "meta_mean_anomaly": 284.8652,
        "meta_ephemeris_type": 0,
        "meta_classification_type": "U",
        "meta_norad_cat_id": 30103,
        "meta_element_set_no": 999,
        "meta_rev_at_epoch": 97850,
        "meta_bstar": 0.00064901634,
        "meta_mean_motion_dot": 1.499e-05,
        "meta_mean_motion_ddot": 0,
        "tle_line1": "1 30103U 99025RG  25341.89524593  .00001499  00000+0  64902-3 0  9998",
        "tle_line2": "2 30103  99.2444 323.1212 0063982 133.5589 284.8652 14.24841958978507"
      },
      "geometry": {
        "type": "Point",
        "coordinates": [
          -35.37649050612195,
          -6.105246198957212
        ]
      }
    },
    {
      "type": "Feature",
      "properties": {
        "norad_id": 30104,
        "name": "FENGYUN 1C DEB",
        "group": "fengyun-1c-debris",
        "lat": -9.750056732845692,
        "lon": -1.8070646337427831,
        "alt_km": 790.9075052022527,
        "timestamp": "2025-12-08T08:59:01.039591+00:00",
        "meta_object_name": "FENGYUN 1C DEB",
        "meta_object_id": "1999-025RH",
        "meta_epoch": "2025-12-07T12:01:52.663872",
        "meta_mean_motion": 14.25641459,
        "meta_eccentricity": 0.0073869,
        "meta_inclination": 98.3595,
        "meta_ra_of_asc_node": 178.8082,
        "meta_arg_of_pericenter": 123.4889,
        "meta_mean_anomaly": 267.4412,
        "meta_ephemeris_type": 0,
        "meta_classification_type": "U",
        "meta_norad_cat_id": 30104,
        "meta_element_set_no": 999,
        "meta_rev_at_epoch": 97818,
        "meta_bstar": 0.0011640378,
        "meta_mean_motion_dot": 2.799e-05,
        "meta_mean_motion_ddot": 0,
        "tle_line1": "1 30104U 99025RH  25341.50130398  .00002799  00000+0  11640-2 0  9997",
        "tle_line2": "2 30104  98.3595 178.8082 0073869 123.4889 267.4412 14.25641459978181"
      },
      "geometry": {
        "type": "Point",
        "coordinates": [
          -1.8070646337427831,
          -9.750056732845692
        ]
      }
    },
    {
      "type": "Feature",
      "properties": {
        "norad_id": 30105,
        "name": "FENGYUN 1C DEB",
        "group": "fengyun-1c-debris",
        "lat": 2.16524153860148,
        "lon": -31.79478840050453,
        "alt_km": 806.0346386050178,
        "timestamp": "2025-12-08T08:59:01.039602+00:00",
        "meta_object_name": "FENGYUN 1C DEB",
        "meta_object_id": "1999-025RJ",
        "meta_epoch": "2025-12-07T22:50:12.128064",
        "meta_mean_motion": 14.21385459,
        "meta_eccentricity": 0.01998086,
        "meta_inclination": 98.5933,
        "meta_ra_of_asc_node": 328.121,
        "meta_arg_of_pericenter": 87.7767,
        "meta_mean_anomaly": 274.6274,
        "meta_ephemeris_type": 0,
        "meta_classification_type": "U",
        "meta_norad_cat_id": 30105,
        "meta_element_set_no": 999,
        "meta_rev_at_epoch": 97694,
        "meta_bstar": 0.00044904907,
        "meta_mean_motion_dot": 1.157e-05,
        "meta_mean_motion_ddot": 0,
        "tle_line1": "1 30105U 99025RJ  25341.95152926  .00001157  00000+0  44905-3 0  9996",
        "tle_line2": "2 30105  98.5933 328.1210 0199808  87.7767 274.6274 14.21385459976941"
      },
      "geometry": {
        "type": "Point",
        "coordinates": [
          -31.79478840050453,
          2.16524153860148
        ]
      }
    },
    {
      "type": "Feature",
      "properties": {
        "norad_id": 30106,
        "name": "FENGYUN 1C DEB",
        "group": "fengyun-1c-debris",
        "lat": 68.91485472262542,
        "lon": -134.852173355923,
        "alt_km": 634.1076589328859,
        "timestamp": "2025-12-08T08:59:01.039612+00:00",
        "meta_object_name": "FENGYUN 1C DEB",
        "meta_object_id": "1999-025RK",
        "meta_epoch": "2025-12-07T16:45:25.604928",
        "meta_mean_motion": 14.84564578,
        "meta_eccentricity": 0.00474745,
        "meta_inclination": 98.9239,
        "meta_ra_of_asc_node": 248.4412,
        "meta_arg_of_pericenter": 215.1769,
        "meta_mean_anomaly": 204.6586,
        "meta_ephemeris_type": 0,
        "meta_classification_type": "U",
        "meta_norad_cat_id": 30106,
        "meta_element_set_no": 999,
        "meta_rev_at_epoch": 98470,
        "meta_bstar": 0.007521185,
        "meta_mean_motion_dot": 0.00065272,
        "meta_mean_motion_ddot": 0,
        "tle_line1": "1 30106U 99025RK  25341.69821302  .00065272  00000+0  75212-2 0  9991",
        "tle_line2": "2 30106  98.9239 248.4412 0047474 215.1769 204.6586 14.84564578984705"
      },
      "geometry": {
        "type": "Point",
        "coordinates": [
          -134.852173355923,
          68.91485472262542
        ]
      }
    },
    {
      "type": "Feature",
      "properties": {
        "norad_id": 30107,
        "name": "FENGYUN 1C DEB",
        "group": "fengyun-1c-debris",
        "lat": 23.559675359635683,
        "lon": 35.43915615817089,
        "alt_km": 851.7942274427633,
        "timestamp": "2025-12-08T08:59:01.039623+00:00",
        "meta_object_name": "FENGYUN 1C DEB",
        "meta_object_id": "1999-025RL",
        "meta_epoch": "2025-12-07T20:59:14.030016",
        "meta_mean_motion": 14.14417841,
        "meta_eccentricity": 0.01262495,
        "meta_inclination": 98.8476,
        "meta_ra_of_asc_node": 38.8384,
        "meta_arg_of_pericenter": 289.5841,
        "meta_mean_anomaly": 69.1738,
        "meta_ephemeris_type": 0,
        "meta_classification_type": "U",
        "meta_norad_cat_id": 30107,
        "meta_element_set_no": 999,
        "meta_rev_at_epoch": 97492,
        "meta_bstar": 0.00016337934,
        "meta_mean_motion_dot": 2.92e-06,
        "meta_mean_motion_ddot": 0,
        "tle_line1": "1 30107U 99025RL  25341.87446794  .00000292  00000+0  16338-3 0  9996",
        "tle_line2": "2 30107  98.8476  38.8384 0126249 289.5841  69.1738 14.14417841974920"
      },
      "geometry": {
        "type": "Point",
        "coordinates": [
          35.43915615817089,
          23.559675359635683
        ]
      }
    },
    {
      "type": "Feature",
      "properties": {
        "norad_id": 30108,
        "name": "FENGYUN 1C DEB",
        "group": "fengyun-1c-debris",
        "lat": -60.70468719250546,
        "lon": 132.5768585022052,
        "alt_km": 968.4929516274633,
        "timestamp": "2025-12-08T08:59:01.039633+00:00",
        "meta_object_name": "FENGYUN 1C DEB",
        "meta_object_id": "1999-025RM",
        "meta_epoch": "2025-12-07T21:56:20.190912",
        "meta_mean_motion": 14.17157725,
        "meta_eccentricity": 0.01978463,
        "meta_inclination": 98.6598,
        "meta_ra_of_asc_node": 327.8894,
        "meta_arg_of_pericenter": 36.0037,
        "meta_mean_anomaly": 20.4051,
        "meta_ephemeris_type": 0,
        "meta_classification_type": "U",
        "meta_norad_cat_id": 30108,
        "meta_element_set_no": 999,
        "meta_rev_at_epoch": 97530,
        "meta_bstar": 0.00053741703,
        "meta_mean_motion_dot": 1.269e-05,
        "meta_mean_motion_ddot": 0,
        "tle_line1": "1 30108U 99025RM  25341.91412258  .00001269  00000+0  53742-3 0  9995",
        "tle_line2": "2 30108  98.6598 327.8894 0197846  36.0037  20.4051 14.17157725975300"
      },
      "geometry": {
        "type": "Point",
        "coordinates": [
          132.5768585022052,
          -60.70468719250546
        ]
      }
    },
    {
      "type": "Feature",
      "properties": {
        "norad_id": 30109,
        "name": "FENGYUN 1C DEB",
        "group": "fengyun-1c-debris",
        "lat": -10.212206087309479,
        "lon": -22.386559402711953,
        "alt_km": 866.5407034446034,
        "timestamp": "2025-12-08T08:59:01.039643+00:00",
        "meta_object_name": "FENGYUN 1C DEB",
        "meta_object_id": "1999-025RN",
        "meta_epoch": "2025-12-07T23:08:03.816384",
        "meta_mean_motion": 14.17536042,
        "meta_eccentricity": 0.01671944,
        "meta_inclination": 98.5077,
        "meta_ra_of_asc_node": 335.6751,
        "meta_arg_of_pericenter": 246.2796,
        "meta_mean_anomaly": 168.5902,
        "meta_ephemeris_type": 0,
        "meta_classification_type": "U",
        "meta_norad_cat_id": 30109,
        "meta_element_set_no": 999,
        "meta_rev_at_epoch": 97484,
        "meta_bstar": 0.00060224618,
        "meta_mean_motion_dot": 1.36e-05,
        "meta_mean_motion_ddot": 0,
        "tle_line1": "1 30109U 99025RN  25341.96393306  .00001360  00000+0  60225-3 0  9999",
        "tle_line2": "2 30109  98.5077 335.6751 0167194 246.2796 168.5902 14.17536042974841"
      },
      "geometry": {
        "type": "Point",
        "coordinates": [
          -22.386559402711953,
          -10.212206087309479
        ]
      }
    }
  ]
}